NORAD_CAT_ID,OBJECT_NAME,OBJECT_TYPE,EPOCH,MEAN_MOTION,ECCENTRICITY,INCLINATION,RA_OF_ASC_NODE,ARG_OF_PERICENTER,MEAN_ANOMALY,BSTAR,MEAN_MOTION_DOT,MEAN_MOTION_DDOT,TLE_LINE0,TLE_LINE1,TLE_LINE2,SEMIMAJOR_AXIS,PERIOD,APOGEE,PERIGEE,DECAYED
50193.0,STARLINK-3261,PAYLOAD,2024-07-14 01:33:56,15.08843661,0.0001229,53.2164,68.8956,82.7378,277.3754,0.00018599,2.674e-05,0.0,0 STARLINK-3261,1 50193U 21125AP  24196.06523336  .00002674  00000-0  18599-3 0  9993,2 50193  53.2164  68.8956 0001229  82.7378 277.3754 15.08843661145122,6917.869,95.437,540.584,538.884,0.0
50193.0,STARLINK-3261,PAYLOAD,2024-07-14 20:38:34,15.08839653,0.0001287,53.2164,65.3264,87.412,272.702,0.00013373,1.841e-05,0.0,0 STARLINK-3261,1 50193U 21125AP  24196.86011592  .00001841  00000-0  13373-3 0  9997,2 50193  53.2164  65.3264 0001287  87.4120 272.7020 15.08839653145241,6917.881,95.438,540.637,538.856,0.0
50193.0,STARLINK-3261,PAYLOAD,2024-07-14 22:13:57,15.08840802,0.0001196,53.2164,65.0296,79.8391,280.2736,0.00010682,1.413e-05,0.0,0 STARLINK-3261,1 50193U 21125AP  24196.92635514  .00001413  00000-0  10682-3 0  9995,2 50193  53.2164  65.0296 0001196  79.8391 280.2736 15.08840802145782,6917.878,95.438,540.57,538.916,0.0
50193.0,STARLINK-3261,PAYLOAD,2024-07-15 07:46:15,15.08856158,0.0001162,53.217,63.2448,87.1363,272.9762,0.00031341,4.706e-05,0.0,0 STARLINK-3261,1 50193U 21125AP  24197.32378575  .00004706  00000-0  31341-3 0  9994,2 50193  53.2170  63.2448 0001162  87.1363 272.9762 15.08856158145319,6917.831,95.437,540.5,538.892,0.0
50193.0,STARLINK-3261,PAYLOAD,2024-07-15 14:07:48,15.08838493,0.0002346,53.2169,62.056,75.5196,284.6057,8.035e-05,9.91e-06,0.0,0 STARLINK-3261,1 50193U 21125AP  24197.58875878  .00000991  00000-0  80350-4 0  9997,2 50193  53.2169  62.0560 0002346  75.5196 284.6057 15.08838493145880,6917.885,95.438,541.373,538.127,0.0
50193.0,STARLINK-3261,PAYLOAD,2024-07-15 20:29:21,15.08829117,0.0001537,53.2172,60.8684,84.1313,275.9855,-9.8665e-05,-1.857e-05,0.0,0 STARLINK-3261,1 50193U 21125AP  24197.85372163 -.00001857  00000-0 -98665-4 0  9998,2 50193  53.2172  60.8684 0001537  84.1313 275.9855 15.08829117145393,6917.914,95.438,540.842,538.715,0.0
50193.0,STARLINK-3261,PAYLOAD,2024-07-15 23:40:07,15.08836312,0.0001429,53.2173,60.2749,87.6772,272.4383,1.1305e-05,-1.08e-06,0.0,0 STARLINK-3261,1 50193U 21125AP  24197.98619822 -.00000108  00000-0  11305-4 0  9991,2 50193  53.2173  60.2749 0001429  87.6772 272.4383 15.08836312145413,6917.892,95.438,540.745,538.768,0.0
50193.0,STARLINK-3261,PAYLOAD,2024-07-16 07:37:02,15.08849746,0.0001425,53.2175,58.788,88.1164,271.9991,0.00020766,3.019e-05,0.0,0 STARLINK-3261,1 50193U 21125AP  24198.31739165  .00003019  00000-0  20766-3 0  9995,2 50193  53.2175  58.7880 0001425  88.1164 271.9991 15.08849746145469,6917.851,95.437,540.701,538.73,0.0
50193.0,STARLINK-3261,PAYLOAD,2024-07-16 20:20:08,15.08841673,0.0001611,53.2181,56.414,101.6991,258.4182,0.00013074,1.793e-05,0.0,0 STARLINK-3261,1 50193U 21125AP  24198.84731637  .00001793  00000-0  13074-3 0  9990,2 50193  53.2181  56.4140 0001611 101.6991 258.4182 15.08841673145548,6917.875,95.437,540.855,538.626,0.0
50193.0,STARLINK-3261,PAYLOAD,2024-07-16 21:55:31,15.08846216,0.0001465,53.2179,56.1115,77.532,282.5836,0.00017881,2.559e-05,0.0,0 STARLINK-3261,1 50193U 21125AP  24198.91355451  .00002559  00000-0  17881-3 0  9995,2 50193  53.2179  56.1115 0001465  77.5320 282.5836 15.08846216146080,6917.861,95.437,540.74,538.713,0.0
50193.0,STARLINK-3261,PAYLOAD,2024-07-17 07:27:49,15.08854927,0.0001492,53.2182,54.329,90.1596,269.9567,0.00031551,4.739e-05,0.0,0 STARLINK-3261,1 50193U 21125AP  24199.31098923  .00004739  00000-0  31551-3 0  9990,2 50193  53.2182  54.3290 0001492  90.1596 269.9567 15.08854927145610,6917.835,95.437,540.732,538.668,0.0
50193.0,STARLINK-3261,PAYLOAD,2024-07-17 20:10:55,15.0883269,0.0001333,53.2167,51.9477,97.7414,262.3729,-7.8258e-05,-1.533e-05,0.0,0 STARLINK-3261,1 50193U 21125AP  24199.84091752 -.00001533  00000-0 -78258-4 0  9998,2 50193  53.2167  51.9477 0001333  97.7414 262.3729 15.08832690145697,6917.903,95.438,540.69,538.846,0.0
50193.0,STARLINK-3261,PAYLOAD,2024-07-17 21:46:18,15.08833397,0.0001319,53.2172,51.6518,106.951,253.1626,0.0002603,3.856e-05,0.0,0 STARLINK-3261,1 50193U 21125AP  24199.90715706  .00003856  00000-0  26030-3 0  9995,2 50193  53.2172  51.6518 0001319 106.9510 253.1626 15.08833397146230,6917.901,95.438,540.678,538.853,0.0
50193.0,STARLINK-3261,PAYLOAD,2024-07-17 23:21:41,15.08842925,0.000128,53.2169,51.3539,107.9253,252.1879,0.00086247,0.00013466,0.0,0 STARLINK-3261,1 50193U 21125AP  24199.97339657  .00013466  00000-0  86247-3 0  9993,2 50193  53.2169  51.3539 0001280 107.9253 252.1879 15.08842925145716,6917.871,95.437,540.622,538.851,0.0
50193.0,STARLINK-3261,PAYLOAD,2024-07-18 07:18:37,15.0885692,0.0001126,53.2159,49.8647,86.6426,273.4694,0.0019926,0.00031581,0.0,0 STARLINK-3261,1 50193U 21125AP  24200.30459689  .00031581  00000-0  19926-2 0  9998,2 50193  53.2159  49.8647 0001126  86.6426 273.4694 15.08856920146296,6917.829,95.436,540.473,538.915,0.0
50193.0,STARLINK-3261,PAYLOAD,2024-07-18 20:01:43,15.08828181,0.0001441,53.2172,47.4854,92.928,267.1877,0.00079571,0.00012394,0.0,0 STARLINK-3261,1 50193U 21125AP  24200.83452572  .00012394  00000-0  79571-3 0  9994,2 50193  53.2172  47.4854 0001441  92.9280 267.1877 15.08828181145844,6917.917,95.438,540.778,538.785,0.0
50193.0,STARLINK-3261,PAYLOAD,2024-07-19 07:09:24,15.08851562,0.0001492,53.2184,45.4019,99.7846,260.3314,0.0012906,0.00020318,0.0,0 STARLINK-3261,1 50193U 21125AP  24201.29820410  .00020318  00000-0  12906-2 0  9998,2 50193  53.2184  45.4019 0001492  99.7846 260.3314 15.08851562145915,6917.845,95.437,540.742,538.678,0.0
50193.0,STARLINK-3261,PAYLOAD,2024-07-19 19:52:29,15.08844102,0.0001603,53.2194,43.0221,105.211,254.906,0.00035988,5.445e-05,0.0,0 STARLINK-3261,1 50193U 21125AP  24201.82812445  .00005445  00000-0  35988-3 0  9996,2 50193  53.2194  43.0221 0001603 105.2110 254.9060 15.08844102145993,6917.868,95.437,540.842,538.624,0.0
50193.0,STARLINK-3261,PAYLOAD,2024-07-20 07:00:11,15.0885331,0.0001577,53.2193,40.9424,101.7808,258.3361,0.00058572,9.049e-05,0.0,0 STARLINK-3261,1 50193U 21125AP  24202.29180076  .00009049  00000-0  58572-3 0  9994,2 50193  53.2193  40.9424 0001577 101.7808 258.3361 15.08853310146598,6917.84,95.437,540.796,538.614,0.0
50193.0,STARLINK-3261,PAYLOAD,2024-07-20 19:43:16,15.08838548,0.0001354,53.2176,38.5644,96.4693,263.6453,-1.1171e-05,-4.66e-06,0.0,0 STARLINK-3261,1 50193U 21125AP  24202.82172406 -.00000466  00000-0 -11171-4 0  9992,2 50193  53.2176  38.5644 0001354  96.4693 263.6453 15.08838548146149,6917.885,95.438,540.687,538.813,0.0
50193.0,STARLINK-3261,PAYLOAD,2024-07-20 22:54:03,15.0884076,0.0001312,53.2172,37.9684,99.1556,260.9584,0.00017849,2.554e-05,0.0,0 STARLINK-3261,1 50193U 21125AP  24202.95420392  .00002554  00000-0  17849-3 0  9991,2 50193  53.2172  37.9684 0001312  99.1556 260.9584 15.08840760146698,6917.878,95.438,540.651,538.835,0.0
50193.0,STARLINK-3261,PAYLOAD,2024-07-21 17:58:41,15.08841689,0.0001329,53.2174,34.3997,101.8216,258.2926,0.00035979,5.443e-05,0.0,0 STARLINK-3261,1 50193U 21125AP  24203.74908674  .00005443  00000-0  35979-3 0  9997,2 50193  53.2174  34.3997 0001329 101.8216 258.2926 15.08841689146815,6917.875,95.437,540.66,538.821,0.0
50193.0,STARLINK-3261,PAYLOAD,2024-07-23 20:51:01,15.08823007,0.0001788,53.2174,24.8869,71.8206,288.298,0.00042401,6.463e-05,0.0,0 STARLINK-3261,1 50193U 21125AP  24205.86877153  .00006463  00000-0  42401-3 0  9990,2 50193  53.2174  24.8869 0001788  71.8206 288.2980 15.08823007146605,6917.932,95.439,541.034,538.56,0.0
50193.0,STARLINK-3261,PAYLOAD,2024-07-25 11:00:17,15.08843072,8.05e-05,53.2176,17.7505,78.1742,281.9341,0.00040123,6.104e-05,0.0,0 STARLINK-3261,1 50193U 21125AP  24207.45853333  .00006104  00000-0  40123-3 0  9992,2 50193  53.2176  17.7505 0000805  78.1742 281.9341 15.08843072146840,6917.871,95.437,540.293,539.179,0.0
50193.0,STARLINK-3261,PAYLOAD,2024-07-26 10:51:04,15.08843546,0.0001432,53.2162,13.2902,93.1804,266.9352,0.00023805,3.503e-05,0.0,0 STARLINK-3261,1 50193U 21125AP  24208.45213320  .00003503  00000-0  23805-3 0  9997,2 50193  53.2162  13.2902 0001432  93.1804 266.9352 15.08843546146997,6917.87,95.437,540.725,538.744,0.0
50193.0,STARLINK-3261,PAYLOAD,2024-07-26 18:47:59,15.08846063,0.0001306,53.215,11.8042,91.7518,268.3624,0.00028982,4.328e-05,0.0,0 STARLINK-3261,1 50193U 21125AP  24208.78333078  .00004328  00000-0  28982-3 0  9993,2 50193  53.2150  11.8042 0001306  91.7518 268.3624 15.08846063147579,6917.862,95.437,540.63,538.823,0.0
50193.0,STARLINK-3261,PAYLOAD,2024-07-27 04:20:18,15.08854389,0.0001315,53.2142,10.0184,96.6115,263.5027,0.00037705,5.72e-05,0.0,0 STARLINK-3261,1 50193U 21125AP  24209.18076569  .00005720  00000-0  37705-3 0  9997,2 50193  53.2142  10.0184 0001315  96.6115 263.5027 15.08854389147636,6917.836,95.437,540.611,538.792,0.0
50193.0,STARLINK-3261,PAYLOAD,2024-07-27 18:38:47,15.08831508,0.0001627,53.2152,7.3435,88.2172,271.9006,-5.8302e-05,-1.216e-05,0.0,0 STARLINK-3261,1 50193U 21125AP  24209.77693745 -.00001216  00000-0 -58302-4 0  9998,2 50193  53.2152   7.3435 0001627  88.2172 271.9006 15.08831508147729,6917.906,95.438,540.897,538.646,0.0
50193.0,STARLINK-3261,PAYLOAD,2024-07-28 04:11:05,15.08840336,0.0001504,53.2146,5.5578,100.6496,259.4666,0.00010747,1.423e-05,0.0,0 STARLINK-3261,1 50193U 21125AP  24210.17437424  .00001423  00000-0  10747-3 0  9992,2 50193  53.2146   5.5578 0001504 100.6496 259.4666 15.08840336147252,6917.879,95.438,540.785,538.704,0.0
50193.0,STARLINK-3261,PAYLOAD,2024-07-28 21:40:20,15.08843759,0.0001798,53.2168,2.2835,116.9769,243.1407,0.00032829,4.941e-05,0.0,0 STARLINK-3261,1 50193U 21125AP  24210.90301615  .00004941  00000-0  32829-3 0  9998,2 50193  53.2168   2.2835 0001798 116.9769 243.1407 15.08843759147899,6917.869,95.437,540.978,538.49,0.0
